CIC_OEM_VERS = 2.0
CREATION_DATE = 2025-01-22T18:50:01.562916
ORIGINATOR = ISAE-SUPAERO


META_START
OBJECT_NAME = Sat
OBJECT_ID = Sat
CENTER_NAME = Earth
REF_FRAME = EME2000
TIME_SYSTEM = UTC
START_TIME = 2025-01-22T11:48:35.830
USEABLE_START_TIME = 2025-01-22T11:48:35.830
USEABLE_STOP_TIME = 2025-01-22T23:56:05.830
STOP_TIME = 2025-01-22T23:56:05.830
INTERPOLATION = lagrange
INTERPOLATION_DEGREE = 5
META_STOP


60697 42515.83 2779.6815 -6290.2259 14.693269 -0.92665805 -0.39526386 7.5511358
60697 42965.83 2041.5867 -5695.639 3271.6641 -2.2851558 2.9819052000000004 6.6228216
60697 43415.83 805.3034100000001 -3710.9402000000005 5727.2964 -3.0905301 5.6389727 4.0818799
60697 43865.83 -626.07462 -827.5448 6792.5658 -3.1408019 6.9137105000000005 0.55492212
60697 44315.83 -1905.9799 2257.1321000000003 6206.7294 -2.4300289 6.5124141 -3.1045948
60697 44765.83 -2723.8514 4794.6230000000005 4112.229 -1.1294603 4.5314294 -6.0114019
60697 45215.83 -2880.8576000000003 6168.8067 1017.3776 0.44615788 1.4493771 -7.4575759
60697 45665.83 -2338.853 6046.2905 -2325.223 1.9122272 -1.9812965999999999 -7.0895793000000005
60697 46115.83 -1230.1236000000001 4458.9759 -5103.6451 2.9119857000000002 -4.923591099999999 -5.0041407
60697 46565.83 175.53076000000001 1795.4496000000001 -6647.009400000001 3.2065623999999997 -6.6697096 -1.7149553000000002
60697 47015.83 1538.9959 -1300.6541000000002 -6585.0088 2.7285422 -6.8076151000000005 1.9851607
60697 47465.83 2531.477 -4083.0175 -4931.7725 1.5909059 -5.3026745 5.2125005
60697 47915.83 2911.8737 -5878.1728 -2082.6449 0.063106693 -2.5065025999999997 7.1861298
60697 48365.83 2585.4903 -6246.1557999999995 1272.2775 -1.4841617000000003 0.90617922 7.414536600000001
60697 48815.83 1630.5836000000002 -5095.6615 4317.0432 -2.6716556999999996 4.1008424 5.835733
60697 49265.83 279.3792 -2706.7629 6310.071 -3.2088534 6.2954331 2.8385504000000004
60697 49715.83 -1139.4012 338.35483000000005 6768.28 -2.9674054 6.9604537 -0.8435825
60697 50165.83 -2282.2381 3301.8981000000003 5581.7177 -2.0066524 5.938218300000001 -4.3211174
60697 50615.83 -2871.5308999999997 5464.539900000001 3037.7522000000004 -0.55788567 3.4738851 -6.7508538
60697 51065.83 -2763.7525 6300.6651 -245.64797000000002 1.0268332 0.16538905 -7.538369800000001
60697 51515.83 -1985.5005 5608.255400000001 -3469.2626 2.359862 -3.1770958 -6.4933028
60697 51965.83 -726.5261800000001 3558.3832 -5851.8718 3.1189478 -5.7421856 -3.8787792
60697 52415.83 707.7502800000001 650.23695 -6819.4645 3.1243813 -6.9164946 -0.33379142
60697 52865.83 1971.5966 -2414.509 -6140.0801 2.376883 -6.4240823 3.2918789999999998
60697 53315.83 2759.7321 -4896.4436 -3975.7367999999997 1.0528652 -4.3779196 6.1301344
60697 53765.83 2878.9377000000004 -6191.2865 -845.84517 -0.53166857 -1.2626295 7.4902225
60697 54215.83 2299.4193999999998 -5983.460099999999 2489.7125 -1.9906852 2.167678 7.0255341
60697 54665.83 1160.6848 -4320.514 5218.3458 -2.9649652 5.0691197 4.8490436
60697 55115.83 -259.62204 -1609.2711000000002 6677.2677 -3.2176654 6.7337873 1.4988462999999999
60697 55565.83 -1617.2146 1492.4863 6513.5145 -2.6913612 6.7666563 -2.2110741
60697 56015.83 -2583.1938 4232.7801 4768.210099999999 -1.5128878 5.1602017 -5.3853504
60697 56465.83 -2923.0749 5947.0294 1864.1703 0.033817895 2.3004672 -7.2536947000000005
60697 56915.83 -2554.0022999999997 6218.8811 -1493.4427 1.5724129 -1.1172998 -7.358136900000001
60697 57365.83 -1565.8499 4983.3607 -4488.4043 2.7274782 -4.2578042 -5.6770481
60697 57815.83 -199.19709 2543.4154 -6395.8557 3.2210467 -6.3618021 -2.6265106
60697 58265.83 1215.6083 -509.97004 -6756.9487 2.9374641 -6.9292888 1.0547762
60697 58715.83 2337.2338 -3440.1697000000004 -5484.2964 1.9442609 -5.8247383 4.4861021
60697 59165.83 2893.9424 -5538.8027999999995 -2882.5574 0.47651305000000005 -3.3049807 6.8390515
60697 59615.83 2748.6361 -6293.4763 419.33274 -1.1105713000000002 0.023413317 7.5329388
60697 60065.83 1935.2656000000002 -5518.5823 3619.2165 -2.429377 3.349146 6.3925205
60697 60515.83 651.7824499999999 -3403.2311 5937.712500000001 -3.1567108 5.8572036 3.6985012000000004
60697 60965.83 -789.8327400000001 -462.57674 6812.7653 -3.1181304 6.9420681 0.11118577
60697 61415.83 -2040.2721999999999 2590.222 6033.720700000001 -2.3243974 6.3452693 -3.5020224
60697 61865.83 -2796.3821000000003 5015.326099999999 3788.9741000000004 -0.96612943 4.2091914 -6.2682066999999995
60697 62315.83 -2874.0605 6223.5431 622.6007500000001 0.6281802000000001 1.0490432 -7.5120872
60697 62765.83 -2254.1705 5921.2208 -2695.5634 2.069133 -2.3634876 -6.9283286
60697 63215.83 -1086.8846 4181.4829 -5358.809200000001 3.0069526 -5.1975237 -4.6660106
60697 63665.83 342.6245 1432.5301000000002 -6724.2438 3.2152589 -6.7673288000000005 -1.2784483
60697 64115.83 1689.585 -1662.1000000000001 -6463.273700000001 2.6478601 -6.7031688 2.4144427
60697 64565.83 2628.8291 -4355.4726 -4638.6833 1.4398919000000001 -5.0196417 5.528415
60697 65015.83 2932.4436 -5995.6592 -1689.4972 -0.12028571 -2.1153049 7.3077987
60697 65465.83 2524.6787999999997 -6181.2385 1670.3441 -1.653508 1.3057835 7.3136907
60697 65915.83 1504.6798999999999 -4867.7635 4623.7656 -2.7856587 4.410214 5.5404443
60697 66365.83 119.91216 -2374.4555 6453.838900000001 -3.2413851 6.4411309 2.4257446000000003
60697 66815.83 -1293.96 693.40395 6718.476900000001 -2.9126229 6.9119724 -1.2737745
60697 67265.83 -2394.7689 3593.378 5353.5557 -1.8784721 5.7100419 -4.6675097999999995
60697 67715.83 -2915.1607999999997 5622.428 2687.583 -0.38623835 3.1201781 -6.9337231
60697 68165.83 -2727.7785 6286.2541 -632.15223 1.2018455 -0.23118927 -7.5137503
60697 68615.83 -1876.9046 5420.9227 -3797.2045000000003 2.4977713 -3.5246725000000003 -6.2674785
60697 69065.83 -569.2492900000001 3234.8512 -6031.057 3.1915192 -5.9713496 -3.4970320999999998
60697 69515.83 877.5298100000001 264.28858 -6805.5092 3.1043557 -6.9564437 0.13004141000000002
60697 69965.83 2110.8276 -2768.6096000000002 -5925.603400000001 2.2617761 -6.2472053 3.7208458
60697 70415.83 2830.9257000000002 -5128.664900000001 -3600.0398999999998 0.8713273 -4.0246266 6.4072711
60697 70865.83 2862.7595 -6242.0653 -396.00687 -0.7329321400000001 -0.82073849 7.5363326
60697 71315.83 2198.4415 -5837.6435 2904.8432000000003 -2.1578782999999997 2.5800967999999997 6.8281438
60697 71765.83 1000.1092 -4015.8082000000004 5499.8691 -3.0562214 5.3477245 4.4600828
60697 72215.83 -440.19208000000003 -1221.9884 6759.2811 -3.2129739 6.8125109 1.0227495
60697 72665.83 -1774.3476 1866.7792 6383.4141 -2.5943291 6.6323514999999995 -2.6589525
60697 73115.83 -2680.0992 4504.7065999999995 4462.5960000000005 -1.3475906 4.8489783 -5.702626400000001
60697 73565.83 -2937.8914 6053.6922 1459.6461000000002 0.2288388 1.8857970000000002 -7.367308
60697 74015.83 -2482.1046 6131.5395 -1896.2525 1.7499799 -1.5326509000000001 -7.2483437
60697 74465.83 -1423.8234 4721.3820000000005 -4791.5392 2.8508689 -4.5890528 -5.3655422
60697 74915.83 -19.246269 2162.3766 -6516.5818 3.2611502 -6.536008799999999 -2.1726649000000005
60697 75365.83 1389.5066000000002 -919.83138 -6657.1851 2.8758427 -6.8882715 1.5515491
60697 75815.83 2461.3992000000003 -3779.9518 -5176.4235 1.789155 -5.561388 4.8988706
60697 76265.83 2933.6031000000003 -5719.4435 -2429.9902 0.26573867 -2.8789674 7.0528351
60697 76715.83 2690.9407 -6265.2696 910.3603800000001 -1.3211626 0.50220569 7.4831678
60697 77165.83 1793.9929 -5287.9123 4029.1749 -2.5816268 3.7486724 6.0920922
60697 77615.83 462.64875 -3030.7197 6171.3482 -3.2125901 6.0737081 3.2343824
60697 78065.83 -980.2708700000001 -43.620623 6824.1567000000005 -3.0687921 6.929353600000001 -0.39106392
60697 78515.83 -2187.8527000000004 2954.0372 5833.9872000000005 -2.1879725 6.1201338 -3.9198861000000003
60697 78965.83 -2869.3792000000003 5241.279500000001 3437.797 -0.77776702 3.8347118 -6.5119186000000004
60697 79415.83 -2858.4089 6263.4187 210.27716 0.82638235 0.6125425400000001 -7.5359868
60697 79865.83 -2155.1077 5768.3925 -3067.8603 2.2351209 -2.7682897 -6.7304006
60697 80315.83 -928.65317 3873.0418 -5599.0470000000005 3.1027373 -5.48097 -4.2847713
60697 80765.83 523.37141 1036.8528000000001 -6766.2295 3.2167896000000002 -6.8627956 -0.79456048
60697 81215.83 1847.9822 -2050.755 -6284.6382 2.5489659000000002 -6.5770919999999995 2.8912712000000003
60697 81665.83 2723.1386 -4639.5553 -4270.2805 1.2593281 -4.6893313 5.877129200000001
60697 82115.83 2934.8163 -6098.0238 -1212.4349 -0.33795879 -1.658139 7.4294492000000005
60697 82565.83 2431.8768 -6071.781900000001 2141.7574 -1.8499872000000002 1.7703918 7.1674019
60697 83015.83 1338.7572 -4572.219099999999 4975.342900000001 -2.9072733 4.7546027 5.1670755
60697 83465.83 -77.921249 -1968.2558999999999 6605.092900000001 -3.2591687 6.5788503 1.9293125
60697 83915.83 -1476.029 1109.1432 6642.906 -2.827246 6.817869300000001 -1.7640507
60697 84365.83 -2519.6155 3920.0726 5081.1422 -1.7151824 5.418006 -5.0357078
60697 84815.83 -2956.4745000000003 5786.8910000000005 2293.0213 -0.18512331 2.7055817 -7.1011725
60697 85265.83 -2678.5351 6254.3591 -1050.2516 1.3958363 -0.67287823 -7.450257
60697 85715.83 -1750.9146 5204.7566 -4137.8648 2.6416839 -3.8960311 -5.9865535
60697 86165.83 -397.98931 2890.8629 -6217.517900000001 3.2464735 -6.1744927 -3.0636605

